CCSDS_OEM_VERS = 1.0
CREATION_DATE  = 2017-05-11T11:00:43
ORIGINATOR     = GMAT USER

META_START
OBJECT_NAME          = MOPSSat_alt_35785_km_RAAN_0_066
OBJECT_ID            = SatId
CENTER_NAME          = Earth
REF_FRAME            = EME2000
TIME_SYSTEM          = UTC
START_TIME           = 2017-01-01T00:00:00.000
USEABLE_START_TIME   = 2017-01-01T00:00:00.000
USEABLE_STOP_TIME    = 2017-01-02T00:00:00.000
STOP_TIME            = 2017-01-02T00:00:00.000
INTERPOLATION        = Lagrange
INTERPOLATION_DEGREE = 7 
META_STOP


                                                                                   

2017-01-01T07:29:10.000  -1.628502886676379e+04   3.890654726818101e+04   2.144111699062193e-01  -2.836474374023719e+00  -1.184218775123136e+00   4.182724628590949e-05
2017-01-01T07:29:20.000  -1.631338928285208e+04   3.889469474651734e+04   2.148295783988619e-01  -2.835608487805140e+00  -1.186285408097839e+00   4.185444732435494e-05
2017-01-01T07:29:30.000  -1.634174103230002e+04   3.888282156180157e+04   2.152482587970022e-01  -2.834741096824714e+00  -1.188351406675210e+00   4.188162813102425e-05
2017-01-01T07:29:40.000  -1.637008409977490e+04   3.887092772050364e+04   2.156672108939154e-01  -2.833872201557663e+00  -1.190416769740202e+00   4.190878867339439e-05
2017-01-01T07:29:50.000  -1.639841847052351e+04   3.885901322886348e+04   2.160864344910464e-01  -2.833001802462395e+00  -1.192481496219998e+00   4.193592891951468e-05
2017-01-01T07:30:00.000  -1.642674412973235e+04   3.884707809315895e+04   2.165059293885606e-01  -2.832129900000095e+00  -1.194545585037396e+00   4.196304883738367e-05
2017-01-01T07:30:10.000  -1.645506106267249e+04   3.883512231964584e+04   2.169256953874750e-01  -2.831256494630322e+00  -1.196609035121357e+00   4.199014839509131e-05
2017-01-01T07:30:20.000  -1.648336925433158e+04   3.882314591470969e+04   2.173457322842601e-01  -2.830381586822107e+00  -1.198671845380198e+00   4.201722756045870e-05
2017-01-01T07:30:30.000  -1.651166868968742e+04   3.881114888475377e+04   2.177660398748366e-01  -2.829505177045779e+00  -1.200734014721524e+00   4.204428630130757e-05
2017-01-01T07:30:40.000  -1.653995935370745e+04   3.879913123619799e+04   2.181866179545920e-01  -2.828627265772869e+00  -1.202795542052188e+00   4.207132458545755e-05
2017-01-01T07:30:50.000  -1.656824123107791e+04   3.878709297559722e+04   2.186074663142996e-01  -2.827747853484762e+00  -1.204856426258559e+00   4.209834238047161e-05
2017-01-01T07:31:00.000  -1.659651430656914e+04   3.877503410948288e+04   2.190285847456002e-01  -2.826866940661128e+00  -1.206916666233138e+00   4.212533965400138e-05
2017-01-01T07:31:10.000  -1.662477856488884e+04   3.876295464442634e+04   2.194499730388066e-01  -2.825984527784547e+00  -1.208976260863866e+00   4.215231637364724e-05
2017-01-01T07:31:20.000  -1.665303399133052e+04   3.875085458676158e+04   2.198716309925712e-01  -2.825100615320252e+00  -1.211035209081380e+00   4.217927250757982e-05
2017-01-01T07:31:30.000  -1.668128057112334e+04   3.873873394286303e+04   2.202935584041970e-01  -2.824215203736425e+00  -1.213093509811632e+00   4.220620802391578e-05
2017-01-01T07:31:40.000  -1.670951828960003e+04   3.872659271907392e+04   2.207157550721353e-01  -2.823328293498965e+00  -1.215151161988123e+00   4.223312289088052e-05
2017-01-01T07:31:50.000  -1.673774713174498e+04   3.871443092189793e+04   2.211382207892761e-01  -2.822439885085482e+00  -1.217208164518980e+00   4.226001707636692e-05
2017-01-01T07:32:00.000  -1.676596708256741e+04   3.870224855784144e+04   2.215609553484797e-01  -2.821549978973784e+00  -1.219264516314142e+00   4.228689054830245e-05
2017-01-01T07:32:10.000  -1.679417812701793e+04   3.869004563344864e+04   2.219839585413454e-01  -2.820658575644429e+00  -1.221320216279283e+00   4.231374327456525e-05
2017-01-01T07:32:20.000  -1.682238025001188e+04   3.867782215529339e+04   2.224072301585270e-01  -2.819765675580141e+00  -1.223375263317512e+00   4.234057522302182e-05
2017-01-01T07:32:30.000  -1.685057343645686e+04   3.866557812996569e+04   2.228307699901725e-01  -2.818871279264814e+00  -1.225429656331380e+00   4.236738636153735e-05
2017-01-01T07:32:40.000  -1.687875767126295e+04   3.865331356406752e+04   2.232545778260738e-01  -2.817975387183212e+00  -1.227483394223623e+00   4.239417665799147e-05
2017-01-01T07:32:50.000  -1.690693293944383e+04   3.864102846416960e+04   2.236786534571737e-01  -2.817077999817811e+00  -1.229536475904531e+00   4.242094608035791e-05
2017-01-01T07:33:00.000  -1.693509922604922e+04   3.862872283683981e+04   2.241029966745673e-01  -2.816179117650875e+00  -1.231588900287025e+00   4.244769459665657e-05
2017-01-01T07:33:10.000  -1.696325651616497e+04   3.861639668864339e+04   2.245276072694988e-01  -2.815278741164466e+00  -1.233640666286666e+00   4.247442217494753e-05
2017-01-01T07:33:20.000  -1.699140479497982e+04   3.860405002611266e+04   2.249524850343853e-01  -2.814376870838238e+00  -1.235691772826517e+00   4.250112878341072e-05
2017-01-01T07:33:30.000  -1.701954404768505e+04   3.859168285579183e+04   2.253776297612898e-01  -2.813473507152706e+00  -1.237742218829827e+00   4.252781439023428e-05
2017-01-01T07:33:40.000  -1.704767425946430e+04   3.857929518424151e+04   2.258030412417666e-01  -2.812568650589579e+00  -1.239792003219300e+00   4.255447896361116e-05
2017-01-01T07:33:50.000  -1.707579541546513e+04   3.856688701804977e+04   2.262287192664542e-01  -2.811662301632565e+00  -1.241841124915010e+00   4.258112247169512e-05
2017-01-01T07:34:00.000  -1.710390750077706e+04   3.855445836384367e+04   2.266546636247154e-01  -2.810754460768215e+00  -1.243889582832811e+00   4.260774488259709e-05
2017-01-01T07:34:10.000  -1.713201050051415e+04   3.854200922825195e+04   2.270808741058976e-01  -2.809845128483198e+00  -1.245937375890348e+00   4.263434616445703e-05
2017-01-01T07:34:20.000  -1.716010439944550e+04   3.852953961807123e+04   2.275073504936918e-01  -2.808934305276436e+00  -1.247984502980136e+00   4.266092628511156e-05
2017-01-01T07:34:30.000  -1.718818918244313e+04   3.851704954006512e+04   2.279340925729628e-01  -2.808021991644437e+00  -1.250030963002193e+00   4.268748521250062e-05
2017-01-01T07:34:40.000  -1.721626483431534e+04   3.850453900103868e+04   2.283611001272129e-01  -2.807108188086731e+00  -1.252076754851901e+00   4.271402291451593e-05
2017-01-01T07:34:50.000  -1.724433134045267e+04   3.849200800755091e+04   2.287883729484014e-01  -2.806192895084869e+00  -1.254121877467072e+00   4.274053935959567e-05
2017-01-01T07:35:00.000  -1.727238868618347e+04   3.847945656620136e+04   2.292159108271518e-01  -2.805276113123355e+00  -1.256166329780991e+00   4.276703451613116e-05
2017-01-01T07:35:10.000  -1.730043685692017e+04   3.846688468356547e+04   2.296437135549662e-01  -2.804357842684932e+00  -1.258210110733077e+00   4.279350835259971e-05
2017-01-01T07:35:20.000  -1.732847583779467e+04   3.845429236635475e+04   2.300717809187221e-01  -2.803438084262273e+00  -1.260253219242311e+00   4.281996083723441e-05
2017-01-01T07:35:30.000  -1.735650561392944e+04   3.844167962129863e+04   2.305001127047474e-01  -2.802516838349351e+00  -1.262295654226989e+00   4.284639193826620e-05
2017-01-01T07:35:40.000  -1.738452617043691e+04   3.842904645514335e+04   2.309287086988359e-01  -2.801594105441367e+00  -1.264337414604687e+00   4.287280162392795e-05
2017-01-01T07:35:50.000  -1.741253749215140e+04   3.841639287477618e+04   2.313575686820911e-01  -2.800669886043814e+00  -1.266378499272714e+00   4.289918986218955e-05
2017-01-01T07:36:00.000  -1.744053956399071e+04   3.840371888705925e+04   2.317866924365104e-01  -2.799744180660342e+00  -1.268418907134475e+00   4.292555662111073e-05
2017-01-01T07:36:10.000  -1.746853237081366e+04   3.839102449889462e+04   2.322160797427902e-01  -2.798816989797513e+00  -1.270458637089073e+00   4.295190186870271e-05
2017-01-01T07:36:20.000  -1.749651589805165e+04   3.837830971693790e+04   2.326457303900133e-01  -2.797888313943884e+00  -1.272497688077346e+00   4.297822557353321e-05
2017-01-01T07:36:30.000  -1.752449013107700e+04   3.836557454788452e+04   2.330756441659647e-01  -2.796958153590910e+00  -1.274536059035828e+00   4.300452770412198e-05
2017-01-01T07:36:40.000  -1.755245505534586e+04   3.835281899840525e+04   2.335058208593157e-01  -2.796026509228244e+00  -1.276573748907167e+00   4.303080822907861e-05
2017-01-01T07:36:50.000  -1.758041065603482e+04   3.834004307530870e+04   2.339362602540893e-01  -2.795093381355602e+00  -1.278610756613644e+00   4.305706711675294e-05
2017-01-01T07:37:00.000  -1.760835691831110e+04   3.832724678542154e+04   2.343669621337598e-01  -2.794158770474003e+00  -1.280647081076866e+00   4.308330433549677e-05
2017-01-01T07:37:10.000  -1.763629382733203e+04   3.831443013558724e+04   2.347979262812671e-01  -2.793222677085701e+00  -1.282682721217722e+00   4.310951985366100e-05
2017-01-01T07:37:20.000  -1.766422136797773e+04   3.830159313279220e+04   2.352291524748381e-01  -2.792285101703377e+00  -1.284717675936905e+00   4.313571363934915e-05
2017-01-01T07:37:30.000  -1.769213952521168e+04   3.828873578399709e+04   2.356606404936015e-01  -2.791346044837822e+00  -1.286751944141192e+00   4.316188566075190e-05
2017-01-01T07:37:40.000  -1.772004828393858e+04   3.827585809620285e+04   2.360923901153808e-01  -2.790405507002772e+00  -1.288785524733076e+00   4.318803588601399e-05
2017-01-01T07:37:50.000  -1.774794762963414e+04   3.826296007616034e+04   2.365244011264355e-01  -2.789463488693684e+00  -1.290818416656667e+00   4.321416428382692e-05
2017-01-01T07:38:00.000  -1.777583754771520e+04   3.825004173066048e+04   2.369566733117227e-01  -2.788519990408940e+00  -1.292850618851788e+00   4.324027082283511e-05
2017-01-01T07:38:10.000  -1.780371802368231e+04   3.823710306646912e+04   2.373892064570939e-01  -2.787575012645084e+00  -1.294882130264366e+00   4.326635547177204e-05
